{"type":"FeatureCollection","features":[{"type":"Feature","geometry":{"type":"Polygon","coordinates":[[[-80.52563473862209,-5.421091848616038],[-80.56798048860433,-5.486703098672324],[-80.6367069885593,-5.486080098664634],[-80.63532811355705,-5.450374973631947],[-80.70542973849851,-5.429529348604976],[-80.70036136350068,-5.406150348584112],[-80.64990823854123,-5.396777348581147],[-80.58022073859136,-5.420306598610048],[-80.52563473862209,-5.421091848616038]]]},"properties":{"name":"EL TALLAN","prov":"PIURA","dep":"PIURA","ubigeo":"200108","nivel":"Alto","source":"CENEPRED/SIGRID - FONDES 23/06/2026"}},{"type":"Feature","geometry":{"type":"Polygon","coordinates":[[[-79.52139061345281,-5.424871098671412],[-79.59866411350015,-5.480261723720945],[-79.64253323852495,-5.485191348724319],[-79.69103123855015,-5.459031223698606],[-79.74998636357896,-5.446435598685063],[-79.76858986358705,-5.425029348664562],[-79.68666986354677,-5.41171097365481],[-79.55070311346972,-5.370634723620311],[-79.53821098846156,-5.338005723590303],[-79.49119923843296,-5.372390598623333],[-79.48701761343104,-5.415083973663083],[-79.52139061345281,-5.424871098671412]]]},"properties":{"name":"SAN MIGUEL DE EL FAIQUE","prov":"HUANCABAMBA","dep":"PIURA","ubigeo":"200306","nivel":"Muy Alto","source":"CENEPRED/SIGRID - FONDES 23/06/2026"}},{"type":"Feature","geometry":{"type":"Polygon","coordinates":[[[-80.74916011345573,-5.413369098584932],[-80.75709761345107,-5.444507848612466],[-80.79119136341961,-5.483929723644266],[-80.88264261331705,-5.547917973690129],[-80.93021873823882,-5.457523473600446],[-80.9939511131289,-5.388460973527427],[-80.96149023817135,-5.311046848462039],[-80.74916011345573,-5.413369098584932]]]},"properties":{"name":"VICE","prov":"SECHURA","dep":"PIURA","ubigeo":"200805","nivel":"Alto","source":"CENEPRED/SIGRID - FONDES 23/06/2026"}},{"type":"Feature","geometry":{"type":"Polygon","coordinates":[[[-80.52563473862209,-5.421091848616038],[-80.58022073859136,-5.420306598610048],[-80.64990823854123,-5.396777348581147],[-80.67782036351676,-5.37342972355665],[-80.69923436349256,-5.313169973498938],[-80.64073823854129,-5.321091848512621],[-80.58829886357624,-5.301271473499762],[-80.51478323861816,-5.300333973505855],[-80.52654886361611,-5.351177723551587],[-80.52563473862209,-5.421091848616038]]]},"properties":{"name":"CURA MORI","prov":"PIURA","dep":"PIURA","ubigeo":"200107","nivel":"Muy Alto","source":"CENEPRED/SIGRID - FONDES 23/06/2026"}},{"type":"Feature","geometry":{"type":"Polygon","coordinates":[[[-79.4369804883965,-5.288779223546761],[-79.40650973837764,-5.38791997363952],[-79.41974023838729,-5.435449223683409],[-79.40333986337754,-5.524421848766464],[-79.44385161340486,-5.530466848771241],[-79.45515036341173,-5.49444722373755],[-79.52139061345281,-5.424871098671412],[-79.48701761343104,-5.415083973663083],[-79.49119923843296,-5.372390598623333],[-79.53821098846156,-5.338005723590303],[-79.54885936346744,-5.308986348563089],[-79.4999999884375,-5.31196097356698],[-79.4369804883965,-5.288779223546761]]]},"properties":{"name":"SONDORILLO","prov":"HUANCABAMBA","dep":"PIURA","ubigeo":"200308","nivel":"Bajo","source":"CENEPRED/SIGRID - FONDES 23/06/2026"}},{"type":"Feature","geometry":{"type":"Polygon","coordinates":[[[-79.73198636356861,-5.377044973621213],[-79.76858986358705,-5.425029348664562],[-79.74998636357896,-5.446435598685063],[-79.69103123855015,-5.459031223698606],[-79.64253323852495,-5.485191348724319],[-79.6498184885297,-5.520607473756993],[-79.68160936354698,-5.530980348765692],[-79.73738086357459,-5.509001973743516],[-79.77704686359466,-5.561915973791297],[-79.80040236360512,-5.562152348790686],[-79.83943748862367,-5.630027348852201],[-79.86441986363151,-5.563419973789447],[-79.85398636362648,-5.531818348760535],[-79.90305486364332,-5.491449223721136],[-79.9458729886582,-5.514996098741152],[-79.93866598865118,-5.379173848615579],[-79.89847461363658,-5.333535098574911],[-79.91113861363961,-5.296265598539857],[-79.86619336362288,-5.264484348512161],[-79.82577348860721,-5.262679723511963],[-79.81624611360495,-5.320373098565825],[-79.73198636356861,-5.377044973621213]]]},"properties":{"name":"SALITRAL","prov":"MORROPON","dep":"PIURA","ubigeo":"200406","nivel":"Alto","source":"CENEPRED/SIGRID - FONDES 23/06/2026"}},{"type":"Feature","geometry":{"type":"Polygon","coordinates":[[[-79.3489531133362,-5.259271473520963],[-79.35904886334362,-5.288626973548089],[-79.32807223832219,-5.315914098573979],[-79.3044003633062,-5.391804723644945],[-79.29769923830217,-5.458126973706727],[-79.2689609882818,-5.513285098758497],[-79.3289609883257,-5.535080098777748],[-79.39848048837435,-5.533480473774972],[-79.40333986337754,-5.524421848766464],[-79.41974023838729,-5.435449223683409],[-79.40650973837764,-5.38791997363952],[-79.4369804883965,-5.288779223546761],[-79.39916986337069,-5.252480473513747],[-79.3489531133362,-5.259271473520963]]]},"properties":{"name":"SONDOR","prov":"HUANCABAMBA","dep":"PIURA","ubigeo":"200307","nivel":"Medio","source":"CENEPRED/SIGRID - FONDES 23/06/2026"}},{"type":"Feature","geometry":{"type":"Polygon","coordinates":[[[-80.85959761331469,-5.281361348449791],[-80.84934373832986,-5.298361348466718],[-80.80560161338727,-5.338550723509292],[-80.72409373847368,-5.352173848531849],[-80.70036136350068,-5.406150348584112],[-80.70542973849851,-5.429529348604976],[-80.72157223848306,-5.421437598595644],[-80.74916011345573,-5.413369098584932],[-80.96149023817135,-5.311046848462039],[-81.0254218630533,-5.242789098389641],[-81.0065624880854,-5.23271684838357],[-80.9392323631965,-5.237542973398404],[-80.85959761331469,-5.281361348449791]]]},"properties":{"name":"LA UNION","prov":"PUIRA","dep":"PIURA","ubigeo":"200110","nivel":"Alto","source":"CENEPRED/SIGRID - FONDES 23/06/2026"}},{"type":"Feature","geometry":{"type":"Polygon","coordinates":[[[-80.69923436349256,-5.313169973498938],[-80.67782036351676,-5.37342972355665],[-80.64990823854123,-5.396777348581147],[-80.70036136350068,-5.406150348584112],[-80.72409373847368,-5.352173848531849],[-80.80560161338727,-5.338550723509292],[-80.84934373832986,-5.298361348466718],[-80.82769923834842,-5.225009723402517],[-80.80099223837873,-5.212681598394648],[-80.75050586344165,-5.290964848472596],[-80.69923436349256,-5.313169973498938]]]},"properties":{"name":"LA ARENA","prov":"PIURA","dep":"PIURA","ubigeo":"200109","nivel":"Muy Alto","source":"CENEPRED/SIGRID - FONDES 23/06/2026"}},{"type":"Feature","geometry":{"type":"Polygon","coordinates":[[[-79.72003711355882,-5.215253848471426],[-79.69449611354717,-5.258050723511937],[-79.65519723852843,-5.333298848582904],[-79.66282423853329,-5.368953098615803],[-79.73198636356861,-5.377044973621213],[-79.81624611360495,-5.320373098565825],[-79.82577348860721,-5.262679723511963],[-79.80799798859896,-5.229615223481908],[-79.73541411356592,-5.204785098461237],[-79.72003711355882,-5.215253848471426]]]},"properties":{"name":"SAN JUAN DE BIGOTE","prov":"MORROPON","dep":"PIURA","ubigeo":"200407","nivel":"Alto","source":"CENEPRED/SIGRID - FONDES 23/06/2026"}},{"type":"Feature","geometry":{"type":"Polygon","coordinates":[[[-79.89094936362937,-5.189019348441229],[-79.80799798859896,-5.229615223481908],[-79.82577348860721,-5.262679723511963],[-79.86619336362288,-5.264484348512161],[-79.91113861363961,-5.296265598539857],[-79.89847461363658,-5.333535098574911],[-79.93866598865118,-5.379173848615579],[-80.01091211366699,-5.277251973517936],[-79.99835936366283,-5.244705098488325],[-80.01711911366574,-5.207242223452767],[-79.96359961365278,-5.214769473462146],[-79.93019923864239,-5.195748098445907],[-79.89094936362937,-5.189019348441229]]]},"properties":{"name":"BUENOS AIRES","prov":"MORROPON","dep":"PIURA","ubigeo":"200402","nivel":"Muy Alto","source":"CENEPRED/SIGRID - FONDES 23/06/2026"}},{"type":"Feature","geometry":{"type":"Polygon","coordinates":[[[-80.6367069885593,-5.486080098664634],[-80.56798048860433,-5.486703098672324],[-80.55258011361354,-5.492269473678967],[-80.53462886363204,-5.601605473781346],[-80.62591986357737,-5.598863223769437],[-80.76525386345271,-5.536269473695535],[-80.7684238634469,-5.512818348673657],[-80.76371286344958,-5.492968723656071],[-80.70173436350652,-5.477152348649102],[-80.6367069885593,-5.486080098664634]]]},"properties":{"name":"CRISTO NOS VALGA","prov":"SECHURA","dep":"PIURA","ubigeo":"200804","nivel":"Muy Alto","source":"CENEPRED/SIGRID - FONDES 23/06/2026"}},{"type":"Feature","geometry":{"type":"Polygon","coordinates":[[[-80.79119136341961,-5.483929723644266],[-80.7684238634469,-5.512818348673657],[-80.76525386345271,-5.536269473695535],[-80.62591986357737,-5.598863223769437],[-80.53462886363204,-5.601605473781346],[-80.32297273870424,-5.679326223871158],[-80.29120111370783,-5.677925723872216],[-80.20768948871296,-5.721476598918171],[-80.10908011370735,-5.787798723985564],[-80.05298436369806,-5.811244099010406],[-80.1308632387153,-5.888665974077644],[-80.19891411372186,-5.892999974077376],[-80.32741411372082,-5.947441349118387],[-80.37621873871724,-6.006968724169357],[-80.62705861365212,-6.371869099479857],[-80.62713286365211,-6.372080099480027],[-80.79791986350864,-6.288984349380743],[-80.91313473836394,-6.190584099272527],[-81.0915663630655,-6.082027349140668],[-81.1492597379333,-5.98124022403718],[-81.14928911291626,-5.889230473953702],[-81.1223652379634,-5.842240223916624],[-81.09746098801197,-5.838173723917926],[-81.0684472380581,-5.785746098875862],[-81.02169723814796,-5.830556598925263],[-80.94314448827328,-5.845679723952578],[-80.8914882383394,-5.809820348928086],[-80.86124411337,-5.749665973877685],[-80.85254686336641,-5.635488223774531],[-80.88264261331705,-5.547917973690129],[-80.79119136341961,-5.483929723644266]]]},"properties":{"name":"SECHURA","prov":"SECHURA","dep":"PIURA","ubigeo":"200801","nivel":"Muy Alto","source":"CENEPRED/SIGRID - FONDES 23/06/2026"}},{"type":"Feature","geometry":{"type":"Polygon","coordinates":[[[-80.75709761345107,-5.444507848612466],[-80.75422461345448,-5.449410098617352],[-80.76371286344958,-5.492968723656071],[-80.7684238634469,-5.512818348673657],[-80.79119136341961,-5.483929723644266],[-80.75709761345107,-5.444507848612466]]]},"properties":{"name":"RINCONADA LLICUAR","prov":"SECHURA","dep":"PIURA","ubigeo":"200806","nivel":"Alto","source":"CENEPRED/SIGRID - FONDES 23/06/2026"}},{"type":"Feature","geometry":{"type":"Polygon","coordinates":[[[-79.40333986337754,-5.524421848766464],[-79.39848048837435,-5.533480473774972],[-79.37555073835958,-5.606189473842987],[-79.39894923837765,-5.728759723956491],[-79.35249023834723,-5.872999974091499],[-79.33357036333396,-5.894150349111506],[-79.3674101133588,-5.937220724150903],[-79.41860936339506,-5.970099599180389],[-79.49893948844769,-5.915189474127525],[-79.60132023851158,-5.939539099147432],[-79.62641986352503,-5.887449224098346],[-79.63142773852653,-5.829029349043918],[-79.68271098855526,-5.846445349058528],[-79.73732811358329,-5.837650349048583],[-79.73931636358324,-5.799587849013168],[-79.71728123857058,-5.73934759895799],[-79.75928711359009,-5.696255848916583],[-79.78693361360153,-5.6465878488695],[-79.83943748862367,-5.630027348852201],[-79.80040236360512,-5.562152348790686],[-79.77704686359466,-5.561915973791297],[-79.73738086357459,-5.509001973743516],[-79.68160936354698,-5.530980348765692],[-79.6498184885297,-5.520607473756993],[-79.64253323852495,-5.485191348724319],[-79.59866411350015,-5.480261723720945],[-79.52139061345281,-5.424871098671412],[-79.45515036341173,-5.49444722373755],[-79.44385161340486,-5.530466848771241],[-79.40333986337754,-5.524421848766464]]]},"properties":{"name":"HUARMACA","prov":"HUANCABAMBA","dep":"PIURA","ubigeo":"200304","nivel":"Muy Alto","source":"CENEPRED/SIGRID - FONDES 23/06/2026"}},{"type":"Feature","geometry":{"type":"Polygon","coordinates":[[[-80.70542973849851,-5.429529348604976],[-80.63532811355705,-5.450374973631947],[-80.6367069885593,-5.486080098664634],[-80.70173436350652,-5.477152348649102],[-80.76371286344958,-5.492968723656071],[-80.75422461345448,-5.449410098617352],[-80.72157223848306,-5.421437598595644],[-80.70542973849851,-5.429529348604976]]]},"properties":{"name":"BERNAL","prov":"SECHURA","dep":"PIURA","ubigeo":"200803","nivel":"Muy Alto","source":"CENEPRED/SIGRID - FONDES 23/06/2026"}},{"type":"Feature","geometry":{"type":"Polygon","coordinates":[[[-80.72157223848306,-5.421437598595644],[-80.75422461345448,-5.449410098617352],[-80.75709761345107,-5.444507848612466],[-80.74916011345573,-5.413369098584932],[-80.72157223848306,-5.421437598595644]]]},"properties":{"name":"BELLAVISTA DE LA UNION","prov":"SECHURA","dep":"PIURA","ubigeo":"200802","nivel":"Alto","source":"CENEPRED/SIGRID - FONDES 23/06/2026"}},{"type":"Feature","geometry":{"type":"Polygon","coordinates":[[[-79.54885936346744,-5.308986348563089],[-79.53821098846156,-5.338005723590303],[-79.55070311346972,-5.370634723620311],[-79.68666986354677,-5.41171097365481],[-79.76858986358705,-5.425029348664562],[-79.73198636356861,-5.377044973621213],[-79.66282423853329,-5.368953098615803],[-79.65519723852843,-5.333298848582904],[-79.69449611354717,-5.258050723511937],[-79.65507036352622,-5.235390598492022],[-79.60800973849923,-5.174958973437153],[-79.55982423847183,-5.193251973455315],[-79.57153123848038,-5.279671848535298],[-79.54885936346744,-5.308986348563089]]]},"properties":{"name":"CANCHAQUE","prov":"HUANCABAMBA","dep":"PIURA","ubigeo":"200302","nivel":"Muy Alto","source":"CENEPRED/SIGRID - FONDES 23/06/2026"}},{"type":"Feature","geometry":{"type":"Polygon","coordinates":[[[-80.09252348867723,-5.162236348407456],[-80.03539461366844,-5.178273473425106],[-80.01711911366574,-5.207242223452767],[-79.99835936366283,-5.244705098488325],[-80.01091211366699,-5.277251973517936],[-79.93866598865118,-5.379173848615579],[-79.9458729886582,-5.514996098741152],[-79.96853911366736,-5.581165973801462],[-79.99919136367596,-5.585359348803901],[-80.083925613693,-5.560435598776492],[-80.12590423869665,-5.510822223728288],[-80.25990248869061,-5.330353473553249],[-80.1534277386834,-5.170822223412189],[-80.09252348867723,-5.162236348407456]]]},"properties":{"name":"LA MATANZA","prov":"MORROPON","dep":"PIURA","ubigeo":"200404","nivel":"Muy Alto","source":"CENEPRED/SIGRID - FONDES 23/06/2026"}},{"type":"Feature","geometry":{"type":"Polygon","coordinates":[[[-80.64853911352678,-5.226353473424784],[-80.56111323858974,-5.26037697346482],[-80.51687298861219,-5.235605473446082],[-80.36501761366847,-5.23242184845552],[-80.32300386368064,-5.290535098512168],[-80.25990248869061,-5.330353473553249],[-80.12590423869665,-5.510822223728288],[-80.083925613693,-5.560435598776492],[-79.99919136367596,-5.585359348803901],[-79.96853911366736,-5.581165973801462],[-79.99483011368133,-5.751945348958449],[-80.05298436369806,-5.811244099010406],[-80.10908011370735,-5.787798723985564],[-80.20768948871296,-5.721476598918171],[-80.29120111370783,-5.677925723872216],[-80.32297273870424,-5.679326223871158],[-80.53462886363204,-5.601605473781346],[-80.55258011361354,-5.492269473678967],[-80.56798048860433,-5.486703098672324],[-80.52563473862209,-5.421091848616038],[-80.52654886361611,-5.351177723551587],[-80.51478323861816,-5.300333973505855],[-80.58829886357624,-5.301271473499762],[-80.64073823854129,-5.321091848512621],[-80.69923436349256,-5.313169973498938],[-80.75050586344165,-5.290964848472596],[-80.80099223837873,-5.212681598394648],[-80.76807036340895,-5.151984348343155],[-80.70772261347109,-5.170195348366823],[-80.68975786349043,-5.202970723398892],[-80.64853911352678,-5.226353473424784]]]},"properties":{"name":"CATACAOS","prov":"PIURA","dep":"PIURA","ubigeo":"200105","nivel":"Muy Alto","source":"CENEPRED/SIGRID - FONDES 23/06/2026"}},{"type":"Feature","geometry":{"type":"Polygon","coordinates":[[[-79.64220898851659,-5.10721684837335],[-79.61872848850365,-5.099220723366537],[-79.59783786349273,-5.136341848401518],[-79.60800973849923,-5.174958973437153],[-79.65507036352622,-5.235390598492022],[-79.69449611354717,-5.258050723511937],[-79.72003711355882,-5.215253848471426],[-79.71491598855421,-5.126632848389334],[-79.64220898851659,-5.10721684837335]]]},"properties":{"name":"LALAQUIZ","prov":"HUANCABAMBA","dep":"PIURA","ubigeo":"200305","nivel":"Muy Bajo","source":"CENEPRED/SIGRID - FONDES 23/06/2026"}},{"type":"Feature","geometry":{"type":"Polygon","coordinates":[[[-79.85246098861396,-5.135968723393491],[-79.89094936362937,-5.189019348441229],[-79.93019923864239,-5.195748098445907],[-79.92608986363956,-5.14809959840191],[-79.89380073862809,-5.115480473372945],[-79.8831503636231,-5.071179723332268],[-79.83209961360436,-5.073828098336572],[-79.81988086360069,-5.11477934837496],[-79.85246098861396,-5.135968723393491]]]},"properties":{"name":"SANTA CATALINA DE MOSSA","prov":"MORROPON","dep":"PIURA","ubigeo":"200408","nivel":"Alto","source":"CENEPRED/SIGRID - FONDES 23/06/2026"}},{"type":"Feature","geometry":{"type":"Polygon","coordinates":[[[-79.64220898851659,-5.10721684837335],[-79.71491598855421,-5.126632848389334],[-79.72003711355882,-5.215253848471426],[-79.73541411356592,-5.204785098461237],[-79.80799798859896,-5.229615223481908],[-79.89094936362937,-5.189019348441229],[-79.85246098861396,-5.135968723393491],[-79.80692573859618,-5.144162098402658],[-79.77745298858262,-5.106816223369019],[-79.70596498854846,-5.066556598333843],[-79.64220898851659,-5.10721684837335]]]},"properties":{"name":"YAMANGO","prov":"MORROPON","dep":"PIURA","ubigeo":"200410","nivel":"Muy Bajo","source":"CENEPRED/SIGRID - FONDES 23/06/2026"}},{"type":"Feature","geometry":{"type":"Polygon","coordinates":[[[-79.92608986363956,-5.14809959840191],[-79.93019923864239,-5.195748098445907],[-79.96359961365278,-5.214769473462146],[-80.01711911366574,-5.207242223452767],[-80.03539461366844,-5.178273473425106],[-80.09252348867723,-5.162236348407456],[-80.00220898865696,-5.059226598316353],[-79.99608011365717,-5.104759723358826],[-79.93305073864077,-5.120808598376343],[-79.92608986363956,-5.14809959840191]]]},"properties":{"name":"MORROPON","prov":"MORROPON","dep":"PIURA","ubigeo":"200405","nivel":"Muy Alto","source":"CENEPRED/SIGRID - FONDES 23/06/2026"}},{"type":"Feature","geometry":{"type":"Polygon","coordinates":[[[-79.48781836342646,-5.110787098380309],[-79.49931048843403,-5.13356059840123],[-79.37521098835319,-5.170839848438292],[-79.37226161335134,-5.183915973450519],[-79.3489531133362,-5.259271473520963],[-79.39916986337069,-5.252480473513747],[-79.4369804883965,-5.288779223546761],[-79.4999999884375,-5.31196097356698],[-79.54885936346744,-5.308986348563089],[-79.57153123848038,-5.279671848535298],[-79.55982423847183,-5.193251973455315],[-79.60800973849923,-5.174958973437153],[-79.59783786349273,-5.136341848401518],[-79.61872848850365,-5.099220723366537],[-79.59524998848971,-5.056650348327582],[-79.51819136344487,-5.084763723355485],[-79.48781836342646,-5.110787098380309]]]},"properties":{"name":"HUANCABAMBA","prov":"HUANCABAMBA","dep":"PIURA","ubigeo":"200301","nivel":"Medio","source":"CENEPRED/SIGRID - FONDES 23/06/2026"}},{"type":"Feature","geometry":{"type":"Polygon","coordinates":[[[-79.70596498854846,-5.066556598333843],[-79.77745298858262,-5.106816223369019],[-79.80692573859618,-5.144162098402658],[-79.85246098861396,-5.135968723393491],[-79.81988086360069,-5.11477934837496],[-79.83209961360436,-5.073828098336572],[-79.8831503636231,-5.071179723332268],[-79.79431461358688,-4.992595848262481],[-79.78848436358439,-4.990822223261035],[-79.72928511355863,-5.022146473291931],[-79.70596498854846,-5.066556598333843]]]},"properties":{"name":"CHALACO","prov":"MORROPON","dep":"PIURA","ubigeo":"200403","nivel":"Muy Bajo","source":"CENEPRED/SIGRID - FONDES 23/06/2026"}},{"type":"Feature","geometry":{"type":"Polygon","coordinates":[[[-80.3380683636688,-5.137165973369541],[-80.36501761366847,-5.23242184845552],[-80.51687298861219,-5.235605473446082],[-80.56111323858974,-5.26037697346482],[-80.64853911352678,-5.226353473424784],[-80.61428911354639,-5.156814473364405],[-80.63172261352865,-5.099855473310329],[-80.61071673854183,-5.072066348286913],[-80.60231448853986,-4.975097598198599],[-80.50197461360128,-4.983503848215297],[-80.42099798864088,-5.057558598290025],[-80.44620898863732,-5.144253848367976],[-80.3380683636688,-5.137165973369541]]]},"properties":{"name":"CASTILLA","prov":"PIURA","dep":"PIURA","ubigeo":"200104","nivel":"Alto","source":"CENEPRED/SIGRID - FONDES 23/06/2026"}},{"type":"Feature","geometry":{"type":"Polygon","coordinates":[[[-79.79431461358688,-4.992595848262481],[-79.8831503636231,-5.071179723332268],[-79.89380073862809,-5.115480473372945],[-79.92608986363956,-5.14809959840191],[-79.93305073864077,-5.120808598376343],[-79.99608011365717,-5.104759723358826],[-80.00220898865696,-5.059226598316353],[-79.97797848865002,-5.026499973287077],[-79.90916798863014,-5.019400473283282],[-79.86243361361286,-4.972044848241117],[-79.79431461358688,-4.992595848262481]]]},"properties":{"name":"SANTO DOMINGO","prov":"MORROPON","dep":"PIURA","ubigeo":"200409","nivel":"Muy Bajo","source":"CENEPRED/SIGRID - FONDES 23/06/2026"}},{"type":"Feature","geometry":{"type":"Polygon","coordinates":[[[-80.60231448853986,-4.975097598198599],[-80.61071673854183,-5.072066348286913],[-80.63172261352865,-5.099855473310329],[-80.61428911354639,-5.156814473364405],[-80.64853911352678,-5.226353473424784],[-80.68975786349043,-5.202970723398892],[-80.70772261347109,-5.170195348366823],[-80.76807036340895,-5.151984348343155],[-80.74463086343128,-5.130072223325839],[-80.70032423846358,-5.017623098227697],[-80.69769336346074,-4.960085973175205],[-80.60601948853348,-4.929009723155887],[-80.60231448853986,-4.975097598198599]]]},"properties":{"name":"PIURA","prov":"PIURA","dep":"PIURA","ubigeo":"200101","nivel":"Alto","source":"CENEPRED/SIGRID - FONDES 23/06/2026"}},{"type":"Feature","geometry":{"type":"Polygon","coordinates":[[[-80.10244923866881,-4.929037098191134],[-80.08256236366948,-5.004466848261908],[-80.03880073866331,-5.02635934828428],[-79.97797848865002,-5.026499973287077],[-80.00220898865696,-5.059226598316353],[-80.09252348867723,-5.162236348407456],[-80.1534277386834,-5.170822223412189],[-80.25990248869061,-5.330353473553249],[-80.32300386368064,-5.290535098512168],[-80.36501761366847,-5.23242184845552],[-80.3380683636688,-5.137165973369541],[-80.28961911367342,-5.071517598312215],[-80.22150198867833,-5.050449223296965],[-80.25657611367303,-4.991449223240338],[-80.23430661367266,-4.94830859820183],[-80.17641011367517,-4.971753848226812],[-80.10244923866881,-4.929037098191134]]]},"properties":{"name":"CHULUCANAS","prov":"MORROPON","dep":"PIURA","ubigeo":"200401","nivel":"Muy Alto","source":"CENEPRED/SIGRID - FONDES 23/06/2026"}},{"type":"Feature","geometry":{"type":"Polygon","coordinates":[[[-81.0065624880854,-5.23271684838357],[-81.0254218630533,-5.242789098389641],[-80.96149023817135,-5.311046848462039],[-80.9939511131289,-5.388460973527427],[-81.07816811296416,-5.313212848444672],[-81.10815036290373,-5.314746098440636],[-81.13812111283143,-5.263617223388739],[-81.19455261269259,-5.212119098331194],[-81.17357411273773,-5.18413472330999],[-81.16046673775803,-5.123408223257492],[-81.17135561272687,-5.088324223223693],[-81.13316211281114,-5.070277348214411],[-81.09066986290361,-5.081738223232296],[-81.06598236294901,-5.052251973209738],[-81.01689048802459,-4.924503973101464],[-80.9721328631101,-4.977759723156718],[-80.96257223814942,-5.159048848323343],[-81.0065624880854,-5.23271684838357]]]},"properties":{"name":"PAITA","prov":"PAITA","dep":"PIURA","ubigeo":"200501","nivel":"Alto","source":"CENEPRED/SIGRID - FONDES 23/06/2026"}},{"type":"Feature","geometry":{"type":"Polygon","coordinates":[[[-80.73712886341653,-4.899193348115103],[-80.69769336346074,-4.960085973175205],[-80.70032423846358,-5.017623098227697],[-80.74463086343128,-5.130072223325839],[-80.76807036340895,-5.151984348343155],[-80.80099223837873,-5.212681598394648],[-80.82769923834842,-5.225009723402517],[-80.84934373832986,-5.298361348466718],[-80.85959761331469,-5.281361348449791],[-80.84816011330781,-5.093130848279253],[-80.85081048828846,-4.950705098148729],[-80.82835736331248,-4.904187473109022],[-80.78418161336401,-4.886228473097887],[-80.73712886341653,-4.899193348115103]]]},"properties":{"name":"MIGUEL CHECA","prov":"SULLANA","dep":"PIURA","ubigeo":"200606","nivel":"Alto","source":"CENEPRED/SIGRID - FONDES 23/06/2026"}},{"type":"Feature","geometry":{"type":"Polygon","coordinates":[[[-81.02442186300534,-4.88481247306422],[-81.01185548803105,-4.90401372308362],[-81.01887298802005,-4.917880848095157],[-81.02442186300534,-4.88481247306422]]]},"properties":{"name":"ARENAL","prov":"PAITA","dep":"PIURA","ubigeo":"200503","nivel":"Bajo","source":"CENEPRED/SIGRID - FONDES 23/06/2026"}},{"type":"Feature","geometry":{"type":"Polygon","coordinates":[[[-80.92429886317672,-4.893390598086655],[-80.8382011132996,-4.901652348105477],[-80.82835736331248,-4.904187473109022],[-80.85081048828846,-4.950705098148729],[-80.84816011330781,-5.093130848279253],[-80.85959761331469,-5.281361348449791],[-80.9392323631965,-5.237542973398404],[-81.0065624880854,-5.23271684838357],[-80.96257223814942,-5.159048848323343],[-80.9721328631101,-4.977759723156718],[-81.01689048802459,-4.924503973101464],[-81.01887298802005,-4.917880848095157],[-81.01185548803105,-4.90401372308362],[-80.98720511307262,-4.886703098071557],[-80.92429886317672,-4.893390598086655]]]},"properties":{"name":"LA HUACA","prov":"PAITA","dep":"PIURA","ubigeo":"200505","nivel":"Muy Alto","source":"CENEPRED/SIGRID - FONDES 23/06/2026"}},{"type":"Feature","geometry":null,"properties":{"name":"BELLAVISTA","prov":"SULLANA","dep":"PIURA","ubigeo":"200602","nivel":"Alto","source":"CENEPRED/SIGRID - FONDES 23/06/2026"}},{"type":"Feature","geometry":{"type":"Polygon","coordinates":[[[-81.02892386299315,-4.856937473038174],[-81.02442186300534,-4.88481247306422],[-81.01887298802005,-4.917880848095157],[-81.01689048802459,-4.924503973101464],[-81.06598236294901,-5.052251973209738],[-81.06673636294072,-5.00534759816701],[-81.08641598789535,-4.967333973129207],[-81.1504902377438,-4.891679723049501],[-81.0489882379577,-4.878775348054875],[-81.02892386299315,-4.856937473038174]]]},"properties":{"name":"COLAN","prov":"PAITA","dep":"PIURA","ubigeo":"200504","nivel":"Muy Alto","source":"CENEPRED/SIGRID - FONDES 23/06/2026"}},{"type":"Feature","geometry":{"type":"Polygon","coordinates":[[[-79.21007036323203,-4.965242223249656],[-79.24508598825842,-5.001359348282793],[-79.29436123829554,-5.110480473383531],[-79.3222988633156,-5.116908223389071],[-79.3417656133299,-5.163274473431851],[-79.37226161335134,-5.183915973450519],[-79.37521098835319,-5.170839848438292],[-79.49931048843403,-5.13356059840123],[-79.48781836342646,-5.110787098380309],[-79.48210161342148,-5.024745973300489],[-79.45140036340058,-4.937242223219763],[-79.40971098837288,-4.907751973193133],[-79.38914261335815,-4.834281223125202],[-79.3500566133321,-4.881154348169438],[-79.32070111331167,-4.886853473175187],[-79.26303923827123,-4.968660098252109],[-79.21007036323203,-4.965242223249656]]]},"properties":{"name":"EL CARMEN DE LA FRONTERA","prov":"HUANCABAMBA","dep":"PIURA","ubigeo":"200303","nivel":"Medio","source":"CENEPRED/SIGRID - FONDES 23/06/2026"}},{"type":"Feature","geometry":{"type":"Polygon","coordinates":[[[-80.65639848848885,-4.865017598092223],[-80.69420111345791,-4.893183598114199],[-80.70053711344761,-4.844392598068784],[-80.67609373846528,-4.789322223020775],[-80.65639848848885,-4.865017598092223]]]},"properties":{"name":"SALITRAL","prov":"SULLANA","dep":"PIURA","ubigeo":"200608","nivel":"Alto","source":"CENEPRED/SIGRID - FONDES 23/06/2026"}},{"type":"Feature","geometry":{"type":"Polygon","coordinates":[[[-81.02892386299315,-4.856937473038174],[-81.0489882379577,-4.878775348054875],[-81.1504902377438,-4.891679723049501],[-81.21055273758543,-4.816402347970434],[-81.04310348795639,-4.785425722971],[-81.02892386299315,-4.856937473038174]]]},"properties":{"name":"VICHAYAL","prov":"PAITA","dep":"PIURA","ubigeo":"200507","nivel":"Muy Alto","source":"CENEPRED/SIGRID - FONDES 23/06/2026"}},{"type":"Feature","geometry":{"type":"Polygon","coordinates":[[[-79.90320311362267,-4.834994098112569],[-79.87658986361515,-4.879429723154719],[-79.80839448859052,-4.911015598186352],[-79.78848436358439,-4.990822223261035],[-79.79431461358688,-4.992595848262481],[-79.86243361361286,-4.972044848241117],[-79.90916798863014,-5.019400473283282],[-79.97797848865002,-5.026499973287077],[-80.03880073866331,-5.02635934828428],[-80.08256236366948,-5.004466848261908],[-80.10244923866881,-4.929037098191134],[-80.11708973866831,-4.882369098147221],[-80.09639848866455,-4.838447223107594],[-80.11476173866497,-4.804968723075719],[-80.0772578636599,-4.776933598051555],[-80.05404486365899,-4.840958973111896],[-79.97478498864385,-4.868808598141105],[-79.90320311362267,-4.834994098112569]]]},"properties":{"name":"FRIAS","prov":"AYABACA","dep":"PIURA","ubigeo":"200202","nivel":"Muy Bajo","source":"CENEPRED/SIGRID - FONDES 23/06/2026"}},{"type":"Feature","geometry":{"type":"Polygon","coordinates":[[[-80.98720511307262,-4.886703098071557],[-81.01185548803105,-4.90401372308362],[-81.02442186300534,-4.88481247306422],[-81.02892386299315,-4.856937473038174],[-81.04310348795639,-4.785425722971],[-80.97687298807615,-4.773197222969737],[-80.99509961305372,-4.84762109803482],[-80.98720511307262,-4.886703098071557]]]},"properties":{"name":"AMOTAPE","prov":"PAITA","dep":"PIURA","ubigeo":"200502","nivel":"Alto","source":"CENEPRED/SIGRID - FONDES 23/06/2026"}},{"type":"Feature","geometry":{"type":"Polygon","coordinates":[[[-80.92429886317672,-4.893390598086655],[-80.98720511307262,-4.886703098071557],[-80.99509961305372,-4.84762109803482],[-80.97687298807615,-4.773197222969737],[-80.96825786309073,-4.771792972969685],[-80.93192973815424,-4.804921848004936],[-80.95375586312618,-4.863189473055014],[-80.92429886317672,-4.893390598086655]]]},"properties":{"name":"TAMARINDO","prov":"PAITA","dep":"PIURA","ubigeo":"200506","nivel":"Medio","source":"CENEPRED/SIGRID - FONDES 23/06/2026"}},{"type":"Feature","geometry":{"type":"Polygon","coordinates":[[[-79.45140036340058,-4.937242223219763],[-79.48210161342148,-5.024745973300489],[-79.48781836342646,-5.110787098380309],[-79.51819136344487,-5.084763723355485],[-79.59524998848971,-5.056650348327582],[-79.61872848850365,-5.099220723366537],[-79.64220898851659,-5.10721684837335],[-79.70596498854846,-5.066556598333843],[-79.72928511355863,-5.022146473291931],[-79.78848436358439,-4.990822223261035],[-79.80839448859052,-4.911015598186352],[-79.87658986361515,-4.879429723154719],[-79.80584961358757,-4.836869098117665],[-79.76958786357035,-4.751373098039445],[-79.72518948855158,-4.799509723085409],[-79.65321111351655,-4.823939598110021],[-79.6557597385187,-4.864109348147267],[-79.62798048850442,-4.884119098166538],[-79.5914394884837,-4.850710973136406],[-79.50608011343378,-4.862830098149523],[-79.4925878634262,-4.908929723192655],[-79.45140036340058,-4.937242223219763]]]},"properties":{"name":"PACAIPAMPA","prov":"AYABACA","dep":"PIURA","ubigeo":"200206","nivel":"Muy Bajo","source":"CENEPRED/SIGRID - FONDES 23/06/2026"}},{"type":"Feature","geometry":{"type":"Polygon","coordinates":[[[-80.8382011132996,-4.901652348105477],[-80.92429886317672,-4.893390598086655],[-80.95375586312618,-4.863189473055014],[-80.93192973815424,-4.804921848004936],[-80.96825786309073,-4.771792972969685],[-80.84821286327005,-4.748371097964135],[-80.81976561331686,-4.842845723053972],[-80.8382011132996,-4.901652348105477]]]},"properties":{"name":"IGNACIO ESCUDERO","prov":"SULLANA","dep":"PIURA","ubigeo":"200603","nivel":"Alto","source":"CENEPRED/SIGRID - FONDES 23/06/2026"}},{"type":"Feature","geometry":{"type":"Polygon","coordinates":[[[-79.91680073862405,-4.742646348026454],[-79.90320311362267,-4.834994098112569],[-79.97478498864385,-4.868808598141105],[-80.05404486365899,-4.840958973111896],[-80.0772578636599,-4.776933598051555],[-80.09525786366108,-4.75352934802905],[-80.02569323864971,-4.718234347999537],[-80.0102519886459,-4.69461322297831],[-79.95462111363351,-4.706453097991488],[-79.91680073862405,-4.742646348026454]]]},"properties":{"name":"SAPILLICA","prov":"AYABACA","dep":"PIURA","ubigeo":"200208","nivel":"Bajo","source":"CENEPRED/SIGRID - FONDES 23/06/2026"}},{"type":"Feature","geometry":{"type":"Polygon","coordinates":[[[-79.8493339886009,-4.710912097999398],[-79.80883011358655,-4.749859348036841],[-79.76958786357035,-4.751373098039445],[-79.80584961358757,-4.836869098117665],[-79.87658986361515,-4.879429723154719],[-79.90320311362267,-4.834994098112569],[-79.91680073862405,-4.742646348026454],[-79.87707036360987,-4.686939472976245],[-79.8493339886009,-4.710912097999398]]]},"properties":{"name":"LAGUNAS","prov":"AYABACA","dep":"PIURA","ubigeo":"200204","nivel":"Muy Bajo","source":"CENEPRED/SIGRID - FONDES 23/06/2026"}},{"type":"Feature","geometry":{"type":"Polygon","coordinates":[[[-80.09525786366108,-4.75352934802905],[-80.0772578636599,-4.776933598051555],[-80.11476173866497,-4.804968723075719],[-80.09639848866455,-4.838447223107594],[-80.11708973866831,-4.882369098147221],[-80.10244923866881,-4.929037098191134],[-80.17641011367517,-4.971753848226812],[-80.23430661367266,-4.94830859820183],[-80.25657611367303,-4.991449223240338],[-80.22150198867833,-5.050449223296965],[-80.28961911367342,-5.071517598312215],[-80.3380683636688,-5.137165973369541],[-80.44620898863732,-5.144253848367976],[-80.42099798864088,-5.057558598290025],[-80.50197461360128,-4.983503848215297],[-80.60231448853986,-4.975097598198599],[-80.60601948853348,-4.929009723155887],[-80.54005073857003,-4.839789098079817],[-80.50742973858719,-4.823369098067441],[-80.4188691136272,-4.828960973079456],[-80.3475448636469,-4.792287098050619],[-80.29165036365897,-4.804429723065427],[-80.29714061365532,-4.751650348016364],[-80.22117773866226,-4.712263722984442],[-80.18274023866374,-4.714554722988642],[-80.19506248866607,-4.771644473040771],[-80.15085936366506,-4.754927723027635],[-80.09525786366108,-4.75352934802905]]]},"properties":{"name":"TAMBO GRANDE","prov":"PIURA","dep":"PIURA","ubigeo":"200114","nivel":"Muy Alto","source":"CENEPRED/SIGRID - FONDES 23/06/2026"}},{"type":"Feature","geometry":{"type":"Polygon","coordinates":[[[-80.35566986364363,-4.770998098030459],[-80.3475448636469,-4.792287098050619],[-80.4188691136272,-4.828960973079456],[-80.50742973858719,-4.823369098067441],[-80.54005073857003,-4.839789098079817],[-80.60601948853348,-4.929009723155887],[-80.69769336346074,-4.960085973175205],[-80.73712886341653,-4.899193348115103],[-80.69420111345791,-4.893183598114199],[-80.65639848848885,-4.865017598092223],[-80.61376173851984,-4.82995697306416],[-80.61148236351961,-4.805796848042159],[-80.55748636355428,-4.771191348015205],[-80.54177736355919,-4.70381834795459],[-80.50945698857564,-4.67108197292709],[-80.43347848861302,-4.690390597950686],[-80.37141986363635,-4.719357472981765],[-80.35566986364363,-4.770998098030459]]]},"properties":{"name":"SULLANA","prov":"SULLANA","dep":"PIURA","ubigeo":"200601","nivel":"Muy Alto","source":"CENEPRED/SIGRID - FONDES 23/06/2026"}},{"type":"Feature","geometry":{"type":"Polygon","coordinates":[[[-80.50945698857564,-4.67108197292709],[-80.54177736355919,-4.70381834795459],[-80.55748636355428,-4.771191348015205],[-80.61148236351961,-4.805796848042159],[-80.61376173851984,-4.82995697306416],[-80.65639848848885,-4.865017598092223],[-80.67609373846528,-4.789322223020775],[-80.67547661346164,-4.7403222229759],[-80.63338861349268,-4.681447347925898],[-80.62913861349172,-4.626101472875495],[-80.55351948854617,-4.624080097880245],[-80.50945698857564,-4.67108197292709]]]},"properties":{"name":"QUERECOTILLO","prov":"SULLANA","dep":"PIURA","ubigeo":"200607","nivel":"Alto","source":"CENEPRED/SIGRID - FONDES 23/06/2026"}},{"type":"Feature","geometry":{"type":"Polygon","coordinates":[[[-80.93471098812856,-4.623259722838917],[-80.87247661323015,-4.688427722906399],[-80.84821286327005,-4.748371097964135],[-80.96825786309073,-4.771792972969685],[-80.97687298807615,-4.773197222969737],[-81.04310348795639,-4.785425722971],[-81.21055273758543,-4.816402347970434],[-81.32810348723024,-4.681884722825915],[-81.30964848728291,-4.661818347811677],[-81.29318161232023,-4.595359347755195],[-81.24340823746407,-4.608974597777043],[-81.10910736279327,-4.595822222788494],[-81.0600429879047,-4.651232472846488],[-80.98053323805672,-4.667628847873089],[-80.93471098812856,-4.623259722838917]]]},"properties":{"name":"LA BREA","prov":"TALARA","dep":"PIURA","ubigeo":"200703","nivel":"Bajo","source":"CENEPRED/SIGRID - FONDES 23/06/2026"}},{"type":"Feature","geometry":{"type":"Polygon","coordinates":[[[-80.22142573865689,-4.595451222876476],[-80.15341986365885,-4.604191347888086],[-80.12356636366033,-4.673011722953215],[-80.03555273864929,-4.656345722941771],[-80.0102519886459,-4.69461322297831],[-80.02569323864971,-4.718234347999537],[-80.09525786366108,-4.75352934802905],[-80.15085936366506,-4.754927723027635],[-80.19506248866607,-4.771644473040771],[-80.18274023866374,-4.714554722988642],[-80.22117773866226,-4.712263722984442],[-80.29714061365532,-4.751650348016364],[-80.29165036365897,-4.804429723065427],[-80.3475448636469,-4.792287098050619],[-80.35566986364363,-4.770998098030459],[-80.3431347386435,-4.710331972975297],[-80.3711073636341,-4.677949222943564],[-80.35667386363595,-4.63683784790662],[-80.24885736365394,-4.585107472865399],[-80.22142573865689,-4.595451222876476]]]},"properties":{"name":"LAS LOMAS","prov":"PIURA","dep":"PIURA","ubigeo":"200111","nivel":"Alto","source":"CENEPRED/SIGRID - FONDES 23/06/2026"}},{"type":"Feature","geometry":{"type":"Polygon","coordinates":[[[-79.85782423860049,-4.58325784788074],[-79.781505863572,-4.60937109790735],[-79.76292773856434,-4.617544972915468],[-79.82578511359118,-4.674072097965999],[-79.8493339886009,-4.710912097999398],[-79.87707036360987,-4.686939472976245],[-79.90358011361752,-4.656960972947502],[-79.89900198861427,-4.592630847888047],[-79.85782423860049,-4.58325784788074]]]},"properties":{"name":"MONTERO","prov":"AYABACA","dep":"PIURA","ubigeo":"200205","nivel":"Muy Bajo","source":"CENEPRED/SIGRID - FONDES 23/06/2026"}},{"type":"Feature","geometry":{"type":"Polygon","coordinates":[[[-79.89900198861427,-4.592630847888047],[-79.90358011361752,-4.656960972947502],[-79.87707036360987,-4.686939472976245],[-79.91680073862405,-4.742646348026454],[-79.95462111363351,-4.706453097991488],[-80.0102519886459,-4.69461322297831],[-80.03555273864929,-4.656345722941771],[-80.12356636366033,-4.673011722953215],[-80.15341986365885,-4.604191347888086],[-80.11483011365577,-4.572779347860886],[-80.06610348865144,-4.58793359787713],[-79.97901361363506,-4.567115222861457],[-79.89900198861427,-4.592630847888047]]]},"properties":{"name":"PAIMAS","prov":"AYABACA","dep":"PIURA","ubigeo":"200207","nivel":"Alto","source":"CENEPRED/SIGRID - FONDES 23/06/2026"}},{"type":"Feature","geometry":{"type":"Polygon","coordinates":[[[-79.76292773856434,-4.617544972915468],[-79.781505863572,-4.60937109790735],[-79.8047499885805,-4.571630847871663],[-79.79811911357665,-4.521580097825405],[-79.74432036355523,-4.57533984787686],[-79.76292773856434,-4.617544972915468]]]},"properties":{"name":"SICCHEZ","prov":"AYABACA","dep":"PIURA","ubigeo":"200209","nivel":"Muy Bajo","source":"CENEPRED/SIGRID - FONDES 23/06/2026"}},{"type":"Feature","geometry":{"type":"Polygon","coordinates":[[[-79.80171673857727,-4.488671847794795],[-79.79811911357665,-4.521580097825405],[-79.8047499885805,-4.571630847871663],[-79.781505863572,-4.60937109790735],[-79.85782423860049,-4.58325784788074],[-79.83789648859243,-4.546642597847437],[-79.87864848860589,-4.523134597824296],[-79.85300386359536,-4.45131247275854],[-79.80171673857727,-4.488671847794795]]]},"properties":{"name":"JILILI","prov":"AYABACA","dep":"PIURA","ubigeo":"200203","nivel":"Muy Bajo","source":"CENEPRED/SIGRID - FONDES 23/06/2026"}},{"type":"Feature","geometry":{"type":"Polygon","coordinates":[[[-79.38914261335815,-4.834281223125202],[-79.40971098837288,-4.907751973193133],[-79.45140036340058,-4.937242223219763],[-79.4925878634262,-4.908929723192655],[-79.50608011343378,-4.862830098149523],[-79.5914394884837,-4.850710973136406],[-79.62798048850442,-4.884119098166538],[-79.6557597385187,-4.864109348147267],[-79.65321111351655,-4.823939598110021],[-79.72518948855158,-4.799509723085409],[-79.76958786357035,-4.751373098039445],[-79.80883011358655,-4.749859348036841],[-79.8493339886009,-4.710912097999398],[-79.82578511359118,-4.674072097965999],[-79.76292773856434,-4.617544972915468],[-79.74432036355523,-4.57533984787686],[-79.79811911357665,-4.521580097825405],[-79.80171673857727,-4.488671847794795],[-79.7087597385368,-4.471492222781422],[-79.65545898851009,-4.434160097748081],[-79.62814061349611,-4.439109347753328],[-79.56339061346195,-4.514269472824548],[-79.49793948842351,-4.521228472832306],[-79.4793906134129,-4.572849597880632],[-79.48824998841916,-4.625990222929841],[-79.46446098840468,-4.650460972953021],[-79.45764061340107,-4.699380847998605],[-79.38914261335815,-4.834281223125202]]]},"properties":{"name":"AYABACA","prov":"AYABACA","dep":"PIURA","ubigeo":"200201","nivel":"Alto","source":"CENEPRED/SIGRID - FONDES 23/06/2026"}},{"type":"Feature","geometry":{"type":"Polygon","coordinates":[[[-80.93471098812856,-4.623259722838917],[-80.98053323805672,-4.667628847873089],[-81.0600429879047,-4.651232472846488],[-81.10910736279327,-4.595822222788494],[-81.24340823746407,-4.608974597777043],[-81.29318161232023,-4.595359347755195],[-81.27480073736982,-4.572226597737951],[-81.29780073728931,-4.496400347665265],[-81.27364261236181,-4.505234347677852],[-81.19989848755496,-4.452773472643895],[-81.17624998761444,-4.449199222644693],[-81.1453672376829,-4.403203097608188],[-81.04073823790914,-4.386412097608822],[-81.00037111298568,-4.375808597604811],[-80.98673636300741,-4.347273472580667],[-80.92314848811232,-4.307859347552888],[-80.86884961319863,-4.335537097584617],[-80.85230861322698,-4.383066347629897],[-80.88042386319772,-4.491527347725638],[-80.91944136314135,-4.520330097747055],[-80.89095698819324,-4.595468722819212],[-80.93471098812856,-4.623259722838917]]]},"properties":{"name":"PARIÃ‘AS","prov":"TALARA","dep":"PIURA","ubigeo":"200701","nivel":"Alto","source":"CENEPRED/SIGRID - FONDES 23/06/2026"}},{"type":"Feature","geometry":{"type":"Polygon","coordinates":[[[-81.04073823790914,-4.386412097608822],[-81.1453672376829,-4.403203097608188],[-81.17624998761444,-4.449199222644693],[-81.19989848755496,-4.452773472643895],[-81.27364261236181,-4.505234347677852],[-81.29780073728931,-4.496400347665265],[-81.3003613622762,-4.464968722636488],[-81.26714261236869,-4.434068347614986],[-81.24927923740663,-4.354816347546837],[-81.26028323736796,-4.307796847502495],[-81.04073823790914,-4.386412097608822]]]},"properties":{"name":"LOBITOS","prov":"TALARA","dep":"PIURA","ubigeo":"200704","nivel":"Bajo","source":"CENEPRED/SIGRID - FONDES 23/06/2026"}},{"type":"Feature","geometry":{"type":"Polygon","coordinates":[[[-79.85300386359536,-4.45131247275854],[-79.87864848860589,-4.523134597824296],[-79.83789648859243,-4.546642597847437],[-79.85782423860049,-4.58325784788074],[-79.89900198861427,-4.592630847888047],[-79.97901361363506,-4.567115222861457],[-80.06610348865144,-4.58793359787713],[-80.11483011365577,-4.572779347860886],[-80.15341986365885,-4.604191347888086],[-80.22142573865689,-4.595451222876476],[-80.20148048865678,-4.566990222851233],[-80.2221308636539,-4.529868972815828],[-80.21374023865307,-4.497970722786799],[-80.23380473864897,-4.441824222733854],[-80.28987698864074,-4.433238222722817],[-80.19486136364769,-4.346361347647633],[-80.1787051136466,-4.30377734760907],[-80.10424023864454,-4.290956972600616],[-79.99176948863193,-4.379960972687596],[-79.92069923861486,-4.385609347695392],[-79.87134961360056,-4.412982472722418],[-79.85300386359536,-4.45131247275854]]]},"properties":{"name":"SUYO","prov":"AYABACA","dep":"PIURA","ubigeo":"200210","nivel":"Alto","source":"CENEPRED/SIGRID - FONDES 23/06/2026"}},{"type":"Feature","geometry":{"type":"Polygon","coordinates":[[[-80.90892773812644,-4.224523472478638],[-80.9377051130866,-4.291087847535827],[-80.92314848811232,-4.307859347552888],[-80.98673636300741,-4.347273472580667],[-81.00037111298568,-4.375808597604811],[-81.04073823790914,-4.386412097608822],[-81.26028323736796,-4.307796847502495],[-81.23705273742455,-4.25067572245512],[-81.20184961251621,-4.227206972439879],[-80.90892773812644,-4.224523472478638]]]},"properties":{"name":"EL ALTO","prov":"TALARA","dep":"PIURA","ubigeo":"200702","nivel":"Alto","source":"CENEPRED/SIGRID - FONDES 23/06/2026"}},{"type":"Feature","geometry":{"type":"Polygon","coordinates":[[[-80.84341211322062,-4.18858209745325],[-80.76300973832282,-4.174910097449054],[-80.7145703633783,-4.193449222470671],[-80.71858598837912,-4.255859347527489],[-80.76928323832774,-4.317613222579063],[-80.72526173838047,-4.357583972620049],[-80.723078113391,-4.454681597709251],[-80.65559961346011,-4.507230472763913],[-80.63225786348283,-4.544425722800196],[-80.62913861349172,-4.626101472875495],[-80.63338861349268,-4.681447347925898],[-80.67547661346164,-4.7403222229759],[-80.67609373846528,-4.789322223020775],[-80.70053711344761,-4.844392598068784],[-80.69420111345791,-4.893183598114199],[-80.73712886341653,-4.899193348115103],[-80.78418161336401,-4.886228473097887],[-80.82835736331248,-4.904187473109022],[-80.8382011132996,-4.901652348105477],[-80.81976561331686,-4.842845723053972],[-80.84821286327005,-4.748371097964135],[-80.87247661323015,-4.688427722906399],[-80.93471098812856,-4.623259722838917],[-80.89095698819324,-4.595468722819212],[-80.91944136314135,-4.520330097747055],[-80.88042386319772,-4.491527347725638],[-80.85230861322698,-4.383066347629897],[-80.86884961319863,-4.335537097584617],[-80.92314848811232,-4.307859347552888],[-80.9377051130866,-4.291087847535827],[-80.90892773812644,-4.224523472478638],[-80.93638473807678,-4.178242222433163],[-80.84341211322062,-4.18858209745325]]]},"properties":{"name":"MARCAVELICA","prov":"SULLANA","dep":"PIURA","ubigeo":"200605","nivel":"Alto","source":"CENEPRED/SIGRID - FONDES 23/06/2026"}},{"type":"Feature","geometry":{"type":"Polygon","coordinates":[[[-80.90892773812644,-4.224523472478638],[-81.20184961251621,-4.227206972439879],[-81.12654298769584,-4.17302534740275],[-81.09988673775122,-4.128050722365951],[-80.90892773812644,-4.224523472478638]]]},"properties":{"name":"LOS ORGANOS","prov":"TALARA","dep":"PIURA","ubigeo":"200705","nivel":"Bajo","source":"CENEPRED/SIGRID - FONDES 23/06/2026"}},{"type":"Feature","geometry":{"type":"Polygon","coordinates":[[[-80.93638473807678,-4.178242222433163],[-80.90892773812644,-4.224523472478638],[-81.09988673775122,-4.128050722365951],[-81.04141798787164,-4.087546847337321],[-80.97132223801057,-4.127117222382325],[-80.9707773630159,-4.166912097418619],[-80.93638473807678,-4.178242222433163]]]},"properties":{"name":"MANCORA","prov":"TALARA","dep":"PIURA","ubigeo":"200706","nivel":"Alto","source":"CENEPRED/SIGRID - FONDES 23/06/2026"}},{"type":"Feature","geometry":{"type":"Polygon","coordinates":[[[-80.28987698864074,-4.433238222722817],[-80.23380473864897,-4.441824222733854],[-80.21374023865307,-4.497970722786799],[-80.2221308636539,-4.529868972815828],[-80.20148048865678,-4.566990222851233],[-80.22142573865689,-4.595451222876476],[-80.24885736365394,-4.585107472865399],[-80.35667386363595,-4.63683784790662],[-80.3711073636341,-4.677949222943564],[-80.3431347386435,-4.710331972975297],[-80.35566986364363,-4.770998098030459],[-80.37141986363635,-4.719357472981765],[-80.43347848861302,-4.690390597950686],[-80.50945698857564,-4.67108197292709],[-80.55351948854617,-4.624080097880245],[-80.62913861349172,-4.626101472875495],[-80.63225786348283,-4.544425722800196],[-80.65559961346011,-4.507230472763913],[-80.723078113391,-4.454681597709251],[-80.72526173838047,-4.357583972620049],[-80.76928323832774,-4.317613222579063],[-80.71858598837912,-4.255859347527489],[-80.7145703633783,-4.193449222470671],[-80.66645111342764,-4.21505884749484],[-80.62322073846691,-4.231779347513922],[-80.56083011351058,-4.174701222466481],[-80.52434573853044,-4.107414097407347],[-80.48733198855084,-4.0831288473876],[-80.44932036357282,-4.125249972428938],[-80.43427348858373,-4.195937472495046],[-80.40927736359546,-4.218535097517486],[-80.3712889886082,-4.197554722500514],[-80.32883011362199,-4.223132847526629],[-80.36717573861388,-4.282050722578687],[-80.42672461359489,-4.336583972625119],[-80.45377736358574,-4.385615222668454],[-80.43879298859669,-4.456439472734748],[-80.38954298861746,-4.486111347765427],[-80.33587298863243,-4.467396472751592],[-80.28987698864074,-4.433238222722817]]]},"properties":{"name":"LANCONES","prov":"SULLANA","dep":"PIURA","ubigeo":"200604","nivel":"Bajo","source":"CENEPRED/SIGRID - FONDES 23/06/2026"}},{"type":"Feature","geometry":{"type":"Polygon","coordinates":[[[-80.72877348834851,-4.010931097302173],[-80.81706961324639,-4.076545597353653],[-80.84341211322062,-4.18858209745325],[-80.93638473807678,-4.178242222433163],[-80.9707773630159,-4.166912097418619],[-80.97132223801057,-4.127117222382325],[-81.04141798787164,-4.087546847337321],[-80.98738848796587,-3.985711097251692],[-80.95654486301893,-3.95619922222855],[-80.84202148819472,-3.881783222173183],[-80.81260311323648,-3.89328384718662],[-80.80257148825449,-3.949097347238618],[-80.7640392383065,-3.993283972282717],[-80.72877348834851,-4.010931097302173]]]},"properties":{"name":"CANOAS DE PUNTA SAL","prov":"CONTRALMIRANTE VILLAR","dep":"TUMBES","ubigeo":"240203","nivel":"Alto","source":"CENEPRED/SIGRID - FONDES 23/06/2026"}},{"type":"Feature","geometry":{"type":"Polygon","coordinates":[[[-80.59058286346621,-3.828313097145946],[-80.54498411350045,-3.835913347156186],[-80.55056961349936,-3.88261909719875],[-80.53329298851395,-3.930083972243603],[-80.5229976135252,-4.007034722315105],[-80.55865623850447,-4.056615222358096],[-80.58348498849182,-4.138908097431848],[-80.66645111342764,-4.21505884749484],[-80.7145703633783,-4.193449222470671],[-80.76300973832282,-4.174910097449054],[-80.84341211322062,-4.18858209745325],[-80.81706961324639,-4.076545597353653],[-80.72877348834851,-4.010931097302173],[-80.70845598836577,-3.949211222247428],[-80.67625398839712,-3.928325222231021],[-80.63947311342548,-3.838008597151144],[-80.59058286346621,-3.828313097145946]]]},"properties":{"name":"CASITAS","prov":"CONTRALMIRANTE VILLAR","dep":"TUMBES","ubigeo":"240202","nivel":"Alto","source":"CENEPRED/SIGRID - FONDES 23/06/2026"}},{"type":"Feature","geometry":{"type":"Polygon","coordinates":[[[-80.30499986360758,-3.772566472112142],[-80.25580586362024,-3.83276509717014],[-80.24358598862474,-3.897535097230554],[-80.18073823863193,-3.925826222259574],[-80.24020898862757,-3.956230472284903],[-80.26181998862607,-3.998889972323251],[-80.29807623861984,-4.017258097338329],[-80.33908973860818,-3.992139722312925],[-80.39828748858736,-3.980264347298554],[-80.48996486353836,-3.890310597209961],[-80.44683986355852,-3.837590347164162],[-80.44946411354908,-3.678998722017958],[-80.43491248855527,-3.658169721999621],[-80.34212548859335,-3.683966847028509],[-80.30499986360758,-3.772566472112142]]]},"properties":{"name":"PAMPAS DE HOSPITAL","prov":"TUMBES","dep":"TUMBES","ubigeo":"240104","nivel":"Alto","source":"CENEPRED/SIGRID - FONDES 23/06/2026"}},{"type":"Feature","geometry":{"type":"Polygon","coordinates":[[[-80.55398186348808,-3.733548722061469],[-80.55734698848858,-3.783043347106739],[-80.59058286346621,-3.828313097145946],[-80.63947311342548,-3.838008597151144],[-80.67625398839712,-3.928325222231021],[-80.70845598836577,-3.949211222247428],[-80.72877348834851,-4.010931097302173],[-80.7640392383065,-3.993283972282717],[-80.80257148825449,-3.949097347238618],[-80.81260311323648,-3.89328384718662],[-80.84202148819472,-3.881783222173183],[-80.79461911324934,-3.760203097066657],[-80.75359961329742,-3.718169972031884],[-80.6836308633723,-3.679498097002285],[-80.63518936341815,-3.667068346994626],[-80.60473261344286,-3.6371963469694],[-80.60384173844565,-3.670581847000141],[-80.55398186348808,-3.733548722061469]]]},"properties":{"name":"ZORRITOS","prov":"CONTRALMIRANTE VILLAR","dep":"TUMBES","ubigeo":"240201","nivel":"Muy Bajo","source":"CENEPRED/SIGRID - FONDES 23/06/2026"}},{"type":"Feature","geometry":{"type":"Polygon","coordinates":[[[-80.43491248855527,-3.658169721999621],[-80.44946411354908,-3.678998722017958],[-80.44683986355852,-3.837590347164162],[-80.48996486353836,-3.890310597209961],[-80.39828748858736,-3.980264347298554],[-80.43024411357433,-3.989503847305127],[-80.47979586355338,-4.055539722362713],[-80.48733198855084,-4.0831288473876],[-80.52434573853044,-4.107414097407347],[-80.56083011351058,-4.174701222466481],[-80.62322073846691,-4.231779347513922],[-80.66645111342764,-4.21505884749484],[-80.58348498849182,-4.138908097431848],[-80.55865623850447,-4.056615222358096],[-80.5229976135252,-4.007034722315105],[-80.53329298851395,-3.930083972243603],[-80.55056961349936,-3.88261909719875],[-80.54498411350045,-3.835913347156186],[-80.59058286346621,-3.828313097145946],[-80.55734698848858,-3.783043347106739],[-80.55398186348808,-3.733548722061469],[-80.52698423850345,-3.675193347009638],[-80.44165823855023,-3.622917971966784],[-80.43491248855527,-3.658169721999621]]]},"properties":{"name":"SAN JACINTO","prov":"TUMBES","dep":"TUMBES","ubigeo":"240105","nivel":"Muy Alto","source":"CENEPRED/SIGRID - FONDES 23/06/2026"}},{"type":"Feature","geometry":{"type":"Polygon","coordinates":[[[-80.18073823863193,-3.925826222259574],[-80.24358598862474,-3.897535097230554],[-80.25580586362024,-3.83276509717014],[-80.30499986360758,-3.772566472112142],[-80.29583398860571,-3.673839847021456],[-80.34227186359075,-3.625088596974176],[-80.34229886359067,-3.623124971972364],[-80.27793748860827,-3.636900346988216],[-80.1971601136197,-3.617706971974086],[-80.19838211362203,-3.687056847038105],[-80.18080861362517,-3.738581972086482],[-80.19260161362554,-3.771683597116574],[-80.16043161362836,-3.80239059714634],[-80.15855473863076,-3.869818347208747],[-80.1271653636317,-3.895515972233853],[-80.18073823863193,-3.925826222259574]]]},"properties":{"name":"MATAPALO","prov":"ZARUMILLA","dep":"TUMBES","ubigeo":"240303","nivel":"Muy Alto","source":"CENEPRED/SIGRID - FONDES 23/06/2026"}},{"type":"Feature","geometry":{"type":"Polygon","coordinates":[[[-80.52698423850345,-3.675193347009638],[-80.55398186348808,-3.733548722061469],[-80.60384173844565,-3.670581847000141],[-80.60473261344286,-3.6371963469694],[-80.55548236347963,-3.605693346943886],[-80.55297336348374,-3.645670971980765],[-80.52698423850345,-3.675193347009638]]]},"properties":{"name":"LA CRUZ","prov":"TUMBES","dep":"TUMBES","ubigeo":"240103","nivel":"Bajo","source":"CENEPRED/SIGRID - FONDES 23/06/2026"}},{"type":"Feature","geometry":{"type":"Polygon","coordinates":[[[-80.34227186359075,-3.625088596974176],[-80.29583398860571,-3.673839847021456],[-80.30499986360758,-3.772566472112142],[-80.34212548859335,-3.683966847028509],[-80.43491248855527,-3.658169721999621],[-80.44165823855023,-3.622917971966784],[-80.45394736354287,-3.601029346945888],[-80.3934101135713,-3.605601596953511],[-80.34227186359075,-3.625088596974176]]]},"properties":{"name":"SAN JUAN DE LA VIRGEN","prov":"TUMBES","dep":"TUMBES","ubigeo":"240106","nivel":"Alto","source":"CENEPRED/SIGRID - FONDES 23/06/2026"}},{"type":"Feature","geometry":{"type":"Polygon","coordinates":[[[-80.49717773851334,-3.503441346853528],[-80.49533723851584,-3.529805846877904],[-80.45394736354287,-3.601029346945888],[-80.44165823855023,-3.622917971966784],[-80.52698423850345,-3.675193347009638],[-80.55297336348374,-3.645670971980765],[-80.55548236347963,-3.605693346943886],[-80.49717773851334,-3.503441346853528]]]},"properties":{"name":"CORRALES","prov":"TUMBES","dep":"TUMBES","ubigeo":"240102","nivel":"Muy Alto","source":"CENEPRED/SIGRID - FONDES 23/06/2026"}},{"type":"Feature","geometry":{"type":"Polygon","coordinates":[[[-80.2490251136097,-3.529609346890489],[-80.21033786361627,-3.558728471919039],[-80.1971601136197,-3.617706971974086],[-80.27793748860827,-3.636900346988216],[-80.34229886359067,-3.623124971972364],[-80.37883011357219,-3.494611346851987],[-80.2490251136097,-3.529609346890489]]]},"properties":{"name":"PAPAYAL","prov":"ZARUMILLA","dep":"TUMBES","ubigeo":"240304","nivel":"Muy Alto","source":"CENEPRED/SIGRID - FONDES 23/06/2026"}},{"type":"Feature","geometry":{"type":"Polygon","coordinates":[[[-80.37883011357219,-3.494611346851987],[-80.34229886359067,-3.623124971972364],[-80.34227186359075,-3.625088596974176],[-80.3934101135713,-3.605601596953511],[-80.45394736354287,-3.601029346945888],[-80.49533723851584,-3.529805846877904],[-80.49717773851334,-3.503441346853528],[-80.43356461354784,-3.489849971844702],[-80.37883011357219,-3.494611346851987]]]},"properties":{"name":"TUMBES","prov":"TUMBES","dep":"TUMBES","ubigeo":"240101","nivel":"Muy Alto","source":"CENEPRED/SIGRID - FONDES 23/06/2026"}},{"type":"Feature","geometry":{"type":"Polygon","coordinates":[[[-80.21033786361627,-3.558728471919039],[-80.2490251136097,-3.529609346890489],[-80.28244336360066,-3.465937471830207],[-80.22546273860996,-3.43293847180219],[-80.23972848860942,-3.477789096843002],[-80.2061738636159,-3.534517596896857],[-80.21033786361627,-3.558728471919039]]]},"properties":{"name":"AGUAS VERDES","prov":"ZARUMILLA","dep":"TUMBES","ubigeo":"240302","nivel":"Alto","source":"CENEPRED/SIGRID - FONDES 23/06/2026"}},{"type":"Feature","geometry":{"type":"Polygon","coordinates":[[[-80.22546273860996,-3.43293847180219],[-80.28244336360066,-3.465937471830207],[-80.2490251136097,-3.529609346890489],[-80.37883011357219,-3.494611346851987],[-80.32728711358762,-3.436832096801258],[-80.30796098859149,-3.392945346761659],[-80.22546273860996,-3.43293847180219]]]},"properties":{"name":"ZARUMILLA","prov":"ZARUMILLA","dep":"TUMBES","ubigeo":"240301","nivel":"Alto","source":"CENEPRED/SIGRID - FONDES 23/06/2026"}}]}